H1 CPF 01  gfz 2023 01 02 01  5021 tandemx   
H2 1003001  6202 36605    2023 01 02 00 59 42 2023 01 07 00 00 42   120 1 1  0 0 0
H9
10 0 59948  46062.000000  0    1630568.533   5473511.376   3842874.915
10 0 59948  46182.000000  0    1651638.041   4888292.845   4554590.194
10 0 59948  46302.000000  0    1632855.329   4217628.444   5186144.241
10 0 59948  46422.000000  0    1573172.929   3473971.134   5726455.593
10 0 59948  46542.000000  0    1472486.780   2671051.217   6166056.276
10 0 59948  46662.000000  0    1331656.232   1823616.581   6497253.548
10 0 59948  46782.000000  0    1152502.984    947156.475   6714258.875
10 0 59948  46902.000000  0     937789.084     57615.707   6813282.139
10 0 59948  47022.000000  0     691174.615   -828894.091   6792593.823
10 0 59948  47142.000000  0     417155.111  -1696386.266   6652554.888
10 0 59948  47262.000000  0     120979.489  -2529287.391   6395610.856
10 0 59948  47382.000000  0    -191450.094  -3312718.055   6026251.571
10 0 59948  47502.000000  0    -513693.581  -4032759.833   5550934.790
10 0 59948  47622.000000  0    -838901.999  -4676703.751   4977979.287
10 0 59948  47742.000000  0   -1159959.368  -5233280.899   4317428.308
10 0 59948  47862.000000  0   -1469635.446  -5692870.167   3580878.726
10 0 59948  47982.000000  0   -1760744.307  -6047674.296   2781278.539
10 0 59948  48102.000000  0   -2026306.144  -6291860.910   1932699.007
10 0 59948  48222.000000  0   -2259708.682  -6421666.172   1050083.549
10 0 59948  48342.000000  0   -2454862.335  -6435457.050    148977.893
10 0 59948  48462.000000  0   -2606346.037  -6333751.005   -754751.944
10 0 59948  48582.000000  0   -2709540.182  -6119192.127  -1645207.886
10 0 59948  48702.000000  0   -2760743.590  -5796484.432  -2506747.762
10 0 59948  48822.000000  0   -2757271.349  -5372284.330  -3324267.044
10 0 59948  48942.000000  0   -2697530.614  -4855054.546  -4083467.775
10 0 59948  49062.000000  0   -2581072.897  -4254884.748  -4771107.897
10 0 59948  49182.000000  0   -2408622.620  -3583285.182  -5375227.320
10 0 59948  49302.000000  0   -2182082.149  -2852958.269  -5885348.247
10 0 59948  49422.000000  0   -1904513.070  -2077552.811  -6292647.514
10 0 59948  49542.000000  0   -1580093.474  -1271405.787  -6590098.142
10 0 59948  49662.000000  0   -1214053.839   -449277.686  -6772578.643
10 0 59948  49782.000000  0    -812593.181    373913.915  -6836950.981
10 0 59948  49902.000000  0    -382775.317   1183358.346  -6782108.363
10 0 59948  50022.000000  0      67592.575   1964611.283  -6608991.848
10 0 59948  50142.000000  0     530096.799   2703845.743  -6320577.108
10 0 59948  50262.000000  0     995870.881   3388093.469  -5921830.534
10 0 59948  50382.000000  0    1455761.483   4005471.129  -5419631.506
10 0 59948  50502.000000  0    1900504.100   4545387.771  -4822664.920
10 0 59948  50622.000000  0    2320907.027   4998732.183  -4141282.907
10 0 59948  50742.000000  0    2708039.167   5358034.757  -3387334.710
10 0 59948  50862.000000  0    3053418.121   5617600.018  -2573968.809
10 0 59948  50982.000000  0    3349195.281   5773607.331  -1715408.168
10 0 59948  51102.000000  0    3588332.547   5824175.724   -826702.007
10 0 59948  51222.000000  0    3764765.560   5769390.685     76541.626
10 0 59948  51342.000000  0    3873549.243   5611291.343    978436.290
10 0 59948  51462.000000  0    3910982.271   5353817.601   1863104.244
10 0 59948  51582.000000  0    3874707.128   5002719.920   2714963.500
10 0 59948  51702.000000  0    3763782.836   4565433.685   3519012.333
10 0 59948  51822.000000  0    3578726.962   4050916.850   4261099.348
10 0 59948  51942.000000  0    3321530.264   3469462.659   4928176.018
10 0 59948  52062.000000  0    2995637.041   2832487.854   5508529.553
10 0 59948  52182.000000  0    2605896.741   2152300.933   5991984.475
10 0 59948  52302.000000  0    2158490.516   1441859.847   6370075.927
10 0 59948  52422.000000  0    1660829.858    714521.024   6636192.533
10 0 59948  52542.000000  0    1121430.700    -16212.832   6785685.030
10 0 59948  52662.000000  0     549766.289   -736942.107   6815943.298
10 0 59948  52782.000000  0     -43899.650  -1434616.490   6726439.997
10 0 59948  52902.000000  0    -648697.452  -2096771.117   6518738.696
10 0 59948  53022.000000  0   -1253350.328  -2711749.479   6196467.171
10 0 59948  53142.000000  0   -1846382.372  -3268908.674   5765256.673
10 0 59948  53262.000000  0   -2416334.689  -3758805.658   5232650.763
10 0 59948  53382.000000  0   -2951988.858  -4173362.344   4607981.197
10 0 59948  53502.000000  0   -3442591.938  -4506004.738   3902209.363
10 0 59948  53622.000000  0   -3878075.643  -4751772.455   3127736.223
10 0 59948  53742.000000  0   -4249265.188  -4907397.114   2298185.199
10 0 59948  53862.000000  0   -4548075.094  -4971348.025   1428160.875
10 0 59948  53982.000000  0   -4767686.255  -4943842.213    532986.660
10 0 59948  54102.000000  0   -4902699.282  -4826818.838   -371572.185
10 0 59948  54222.000000  0   -4949260.529  -4623878.687  -1269595.006
10 0 59948  54342.000000  0   -4905156.542  -4340189.565  -2145295.826
10 0 59948  54462.000000  0   -4769874.097  -3982359.572  -2983308.982
10 0 59948  54582.000000  0   -4544625.338  -3558283.158  -3768963.028
10 0 59948  54702.000000  0   -4232338.756  -3076965.099  -4488538.402
10 0 59948  54822.000000  0   -3837616.472  -2548326.182  -5129504.600
10 0 59948  54942.000000  0   -3366659.162  -1982995.650  -5680732.061
10 0 59948  55062.000000  0   -2827161.689  -1392095.747  -6132676.271
10 0 59948  55182.000000  0   -2228181.761   -787022.442  -6477532.503
10 0 59948  55302.000000  0   -1579983.515   -179227.104  -6709359.004
10 0 59948  55422.000000  0    -893860.820    419996.294  -6824167.281
10 0 59948  55542.000000  0    -181943.954    999715.265  -6819982.962
10 0 59948  55662.000000  0     543009.762   1549553.140  -6696875.797
10 0 59948  55782.000000  0    1267837.925   2059869.516  -6456960.468
10 0 59948  55902.000000  0    1979207.558   2521926.899  -6104364.997
10 0 59948  56022.000000  0    2663855.755   2928039.433  -5645167.301
10 0 59948  56142.000000  0    3308833.800   3271701.062  -5087299.577
10 0 59948  56262.000000  0    3901750.894   3547692.525  -4440423.725
10 0 59948  56382.000000  0    4431015.091   3752165.126  -3715775.193
10 0 59948  56502.000000  0    4886065.360   3882698.102  -2925976.519
10 0 59948  56622.000000  0    5257588.109   3938328.042  -2084822.825
10 0 59948  56742.000000  0    5537714.343   3919550.187  -1207043.320
10 0 59948  56862.000000  0    5720192.006   3828289.596   -308041.572
10 0 59948  56982.000000  0    5800528.583   3667843.393    596379.021
10 0 59948  57102.000000  0    5776100.596   3442794.524   1490300.311
10 0 59948  57222.000000  0    5646225.139   3158898.557   2357978.418
10 0 59948  57342.000000  0    5412192.265   2822947.680   3184129.726
10 0 59948  57462.000000  0    5077257.062   2442614.318   3954208.516
10 0 59948  57582.000000  0    4646590.440   2026278.010   4654668.376
10 0 59948  57702.000000  0    4127193.685   1582841.746   5273200.654
10 0 59948  57822.000000  0    3527778.287   1121542.132   5798952.315
10 0 59948  57942.000000  0    2858609.427    651755.941   6222712.750
10 0 59948  58062.000000  0    2131323.220    182809.751   6537067.314
10 0 59948  58182.000000  0    1358721.162   -276203.467   6736521.220
10 0 59948  58302.000000  0     554542.126   -716599.937   6817591.928
10 0 59948  58422.000000  0    -266784.037  -1130268.960   6778865.559
10 0 59948  58542.000000  0   -1090395.293  -1509821.744   6621019.314
10 0 59948  58662.000000  0   -1901265.505  -1848723.549   6346809.086
10 0 59948  58782.000000  0   -2684476.330  -2141405.486   5961023.709
10 0 59948  58902.000000  0   -3425491.399  -2383356.722   5470409.371
10 0 59948  59022.000000  0   -4110431.299  -2571196.417   4883558.503
10 0 59948  59142.000000  0   -4726338.775  -2702721.625   4210763.418
10 0 59948  59262.000000  0   -5261430.086  -2776930.044   3463839.197
10 0 59948  59382.000000  0   -5705327.481  -2794017.570   2655918.800
10 0 59948  59502.000000  0   -6049268.962  -2755351.547   1801222.608
10 0 59948  59622.000000  0   -6286289.551  -2663420.184    914804.011
10 0 59948  59742.000000  0   -6411366.801  -2521756.447     12276.680
10 0 59948  59862.000000  0   -6421528.714  -2334840.344   -890468.186
10 0 59948  59982.000000  0   -6315920.318  -2107981.408  -1777551.892
10 0 59948  60102.000000  0   -6095825.601  -1847184.856  -2633395.937
10 0 59948  60222.000000  0   -5764647.125  -1559005.188  -3443001.154
10 0 59948  60342.000000  0   -5327844.037  -1250391.017  -4192213.293
10 0 59948  60462.000000  0   -4792830.716   -928525.250  -4867969.635
10 0 59948  60582.000000  0   -4168839.036   -600664.000  -5458522.640
10 0 59948  60702.000000  0   -3466747.387   -273978.627  -5953636.135
10 0 59948  60822.000000  0   -2698882.289     44595.859  -6344751.619
10 0 59948  60942.000000  0   -1878797.334    348502.533  -6625124.124
10 0 59948  61062.000000  0   -1021032.600    631691.590  -6789927.373
10 0 59948  61182.000000  0    -140859.865    888736.189  -6836327.383
10 0 59948  61302.000000  0     745982.691   1114933.063  -6763524.783
10 0 59948  61422.000000  0    1623564.102   1306385.423  -6572769.397
10 0 59948  61542.000000  0    2476041.400   1460069.512  -6267342.149
10 0 59948  61662.000000  0    3287940.736   1573882.098  -5852504.315
10 0 59948  61782.000000  0    4044434.494   1646668.017  -5335414.963
10 0 59948  61902.000000  0    4731611.572   1678228.299  -4725019.482
10 0 59948  62022.000000  0    5336737.892   1669308.603  -4031906.229
10 0 59948  62142.000000  0    5848499.322   1621567.122  -3268132.217
10 0 59948  62262.000000  0    6257222.743   1537522.592  -2447021.534
10 0 59948  62382.000000  0    6555071.418   1420483.706  -1582937.449
10 0 59948  62502.000000  0    6736207.259   1274460.721   -691030.698
99
